ONEWEB-0020             
1 45133U 20008C   25025.80332163 -.00000457  00000+0 -13440-2 0  9997
2 45133  87.8918 137.3580 0001695  99.8507 260.2812 13.10376338241895
ONEWEB-0021             
1 45134U 20008D   25025.81827449  .00000374  00000+0  10362-2 0  9991
2 45134  87.8926 137.3813 0001546 111.2497 248.8795 13.10377364242204
ONEWEB-0023             
1 45136U 20008F   25025.83073435  .00000682  00000+0  19164-2 0  9994
2 45136  87.8922 137.3662 0001470  97.6739 262.4555 13.10373347241635
ONEWEB-0024             
1 45137U 20008G   25025.80167599 -.00002536  00000+0 -73030-2 0  9991
2 45137  87.8914 137.3365 0001484 112.2912 247.8373 13.10361896241797
ONEWEB-0025             
1 45138U 20008H   25025.81992599  .00000434  00000+0  12072-2 0  9991
2 45138  87.8914 137.3338 0001079 112.5372 247.5869 13.10373932242120
ONEWEB-0026             
1 45139U 20008J   25025.78504646  .00000584  00000+0  16111-2 0  9994
2 45139  87.8908 122.1991 0001882 105.1709 254.9627 13.11418302244606
ONEWEB-0028             
1 45140U 20008K   25026.19787986 -.00000213  00000+0 -63801-3 0  9992
2 45140  87.8901 122.1477 0001108 110.7109 249.4138 13.11415859242177
ONEWEB-0032             
1 45141U 20008L   25025.83488046  .00000661  00000+0  18561-2 0  9995
2 45141  87.8911 137.3804 0001419 108.1092 252.0190 13.10372959241852
